{
    "links": {
        "self": "http://www.neowsapp.com/rest/v1/neo/54097978?api_key=iIulBulltgU6a56xZRHN4H3l9WmuAYTsLGpBGhQ2"
    },
    "id": "54097978",
    "neo_reference_id": "54097978",
    "name": "(2020 XB1)",
    "designation": "2020 XB1",
    "nasa_jpl_url": "http://ssd.jpl.nasa.gov/sbdb.cgi?sstr=54097978",
    "absolute_magnitude_h": 26.079,
    "estimated_diameter": {
        "kilometers": {
            "estimated_diameter_min": 0.016171674,
            "estimated_diameter_max": 0.0361609623
        },
        "meters": {
            "estimated_diameter_min": 16.1716739505,
            "estimated_diameter_max": 36.1609622633
        },
        "miles": {
            "estimated_diameter_min": 0.0100486092,
            "estimated_diameter_max": 0.0224693733
        },
        "feet": {
            "estimated_diameter_min": 53.0566747638,
            "estimated_diameter_max": 118.638331432
        }
    },
    "is_potentially_hazardous_asteroid": false,
    "close_approach_data": [
        {
            "close_approach_date": "2019-03-01",
            "close_approach_date_full": "2019-Mar-01 17:49",
            "epoch_date_close_approach": 1551462540000,
            "relative_velocity": {
                "kilometers_per_second": "2.7959337496",
                "kilometers_per_hour": "10065.3614987036",
                "miles_per_hour": "6254.2242045694"
            },
            "miss_distance": {
                "astronomical": "1.5942872469",
                "lunar": "620.1777390441",
                "kilometers": "238501976.304404103",
                "miles": "148198256.0311105014"
            },
            "orbiting_body": "Juptr"
        },
        {
            "close_approach_date": "2020-12-07",
            "close_approach_date_full": "2020-Dec-07 20:30",
            "epoch_date_close_approach": 1607373000000,
            "relative_velocity": {
                "kilometers_per_second": "7.4771487852",
                "kilometers_per_hour": "26917.7356266609",
                "miles_per_hour": "16725.6341175771"
            },
            "miss_distance": {
                "astronomical": "0.0211772158",
                "lunar": "8.2379369462",
                "kilometers": "3168066.376210346",
                "miles": "1968545.1635249348"
            },
            "orbiting_body": "Earth"
        }
    ],
    "orbital_data": {
        "orbit_id": "1",
        "orbit_determination_date": "2020-12-07 01:12:10",
        "first_observation_date": "2020-12-06",
        "last_observation_date": "2020-12-07",
        "data_arc_in_days": 1,
        "observations_used": 23,
        "orbit_uncertainty": "7",
        "minimum_orbit_intersection": ".0165139",
        "jupiter_tisserand_invariant": "3.297",
        "epoch_osculation": "2459000.5",
        "eccentricity": ".5770060613336495",
        "semi_major_axis": "2.369379916234699",
        "inclination": "2.365051081724191",
        "ascending_node_longitude": "249.8627231937114",
        "orbital_period": "1332.141877851843",
        "perihelion_distance": "1.002233342965063",
        "perihelion_argument": "178.7143961789588",
        "aphelion_distance": "3.736526489504336",
        "perihelion_time": "2459185.714778198508",
        "mean_anomaly": "309.9472831985555",
        "mean_motion": ".2702414855244407",
        "equinox": "J2000",
        "orbit_class": {
            "orbit_class_type": "APO",
            "orbit_class_description": "Near-Earth asteroid orbits which cross the Earth’s orbit similar to that of 1862 Apollo",
            "orbit_class_range": "a (semi-major axis) > 1.0 AU; q (perihelion) < 1.017 AU"
        }
    },
    "is_sentry_object": false
}